0 SL-18 DEB
1 28958U 93014AK  13280.06034070  .00003200  00000-0  76313-3 0  6044
2 28958 075.7514 053.5506 0133993 018.8597 341.8454 14.48591859455347
0 SL-18 DEB
1 28958U 93014AK  13282.68471007  .00003299  00000-0  78378-3 0  6051
2 28958 075.7491 049.1528 0135853 012.2482 348.2119 14.48610964455724
0 SL-18 DEB
1 28958U 93014AK  13283.03001778  .00003503  00000-0  82787-3 0  6063
2 28958 075.7386 048.5774 0138618 010.8955 349.6358 14.48619158455773
0 SL-18 DEB
1 28958U 93014AK  13283.99685891  .00003611  00000-0  85178-3 0  6070
2 28958 075.7433 046.9599 0139522 008.5321 351.8626 14.48628928455913
0 SL-18 DEB
1 28958U 93014AK  13285.65430573  .00004021  00000-0  92876-3 0  6091
2 28958 075.7248 044.1725 0150448 000.3475 359.8940 14.48651569456159
0 SL-18 DEB
1 28958U 93014AK  13288.00218900  .00014187  00000-0  33550-2 0  6100
2 28958 075.7544 040.2168 0134020 356.6950 003.3317 14.48723570456497
0 SL-18 DEB
1 28958U 93014AK  13291.66210045  .00011936  00000-0  28181-2 0  6112
2 28958 075.7553 034.0786 0134348 347.6889 012.1005 14.48797978457023
0 SL-18 DEB
1 28958U 93014AK  13292.62884080  .00009049  00000-0  21360-2 0  6120
2 28958 075.7505 032.4677 0134807 345.9180 013.7937 14.48814398457168
